      2.10          N: GNSS NAV DATA                        RINEX VERSION / TYPE
fic2rin                                 09/17/2023 00:17:58 PGM / RUN BY / DATE
                                                            END OF HEADER
2  23  9 16  2  0  0.0 -.553465448320D-03  .443378667114D-11  .000000000000D+00
     .190000000000D+02  .220937500000D+02  .407766985132D-08  .213798904394D+00
     .122562050819D-05  .159725449048D-01  .124536454678D-04  .515375115776D+04
     .525600000000D+06 -.217929482460D-06  .288252161191D+00 -.230967998505D-06
     .967907287921D+00  .152468750000D+03 -.134555940868D+01 -.798604693662D-08
    -.115719105880D-09  .100000000000D+01  .227900000000D+04  .000000000000D+00
     .240000000000D+01  .000000000000D+00 -.176951289177D-07  .190000000000D+02
     .518400000000D+06  .400000000000D+01
1  23  9 16  2  0  0.0  .165401957929D-03 -.909494701773D-12  .000000000000D+00
     .540000000000D+02  .390937500000D+02  .342228540907D-08 -.247389375298D+01
     .209361314774D-05  .128702758811D-01  .123027712107D-04  .515363893318D+04
     .525600000000D+06  .689178705215D-07  .389242795833D+00 -.782310962677D-07
     .990611600961D+00  .157062500000D+03  .992366818850D+00 -.725887378980D-08
     .157863718515D-09  .100000000000D+01  .227900000000D+04  .000000000000D+00
     .240000000000D+01  .630000000000D+02  .512227416039D-08  .540000000000D+02
     .518400000000D+06  .400000000000D+01
7  23  9 16  2  0  0.0  .661457888782D-04 -.104591890704D-10  .000000000000D+00
     .250000000000D+02  .329062500000D+02  .438303971405D-08  .311262799329D+01
     .145472586155D-05  .175500373589D-01  .129789113998D-04  .515373397446D+04
     .525600000000D+06  .707805156708D-07 -.276962353362D+01 -.249594449997D-06
     .950809539662D+00  .123250000000D+03 -.217286829813D+01 -.765031866648D-08
     .271082720255D-09  .100000000000D+01  .227900000000D+04  .000000000000D+00
     .240000000000D+01  .000000000000D+00 -.111758708954D-07  .250000000000D+02
     .518400000000D+06  .400000000000D+01
5  23  9 16  2  0  0.0 -.142879784107D-03 -.147792889038D-11  .000000000000D+00
     .770000000000D+02  .572187500000D+02  .453804617070D-08  .335627917621D-01
     .313110649586D-05  .603786751162D-02  .477209687233D-05  .515372357178D+04
     .525600000000D+06 -.119209289551D-06  .137070296207D+01  .745058059692D-07
     .967258899221D+00  .290843750000D+03  .122645574893D+01 -.832570394184D-08
     .397159400426D-09  .100000000000D+01  .227900000000D+04  .000000000000D+00
     .240000000000D+01  .000000000000D+00 -.111758708954D-07  .770000000000D+02
     .518400000000D+06  .400000000000D+01
9  23  9 16  2  0  0.0 -.586169771850D-04  .103455022327D-10  .000000000000D+00
     .830000000000D+02 -.778750000000D+02  .470162441296D-08  .236496746947D+00
    -.420585274696D-05  .283949647564D-02  .658258795738D-05  .515380739212D+04
     .525600000000D+06 -.167638063431D-07  .244204011328D+01 -.372529029846D-08
     .956830464287D+00  .247562500000D+03  .194845558221D+01 -.832106089130D-08
    -.369658254893D-09  .100000000000D+01  .227900000000D+04  .000000000000D+00
     .340000000000D+01  .000000000000D+00  .931322574615D-09  .830000000000D+02
     .518400000000D+06  .400000000000D+01
6  23  9 16  2  0  0.0  .549471005797D-03 -.682121026330D-11  .000000000000D+00
     .680000000000D+02  .325625000000D+02  .357443460383D-08 -.225823566403D+01
     .159442424774D-05  .276271987241D-02  .129342079163D-04  .515374482727D+04
     .525600000000D+06 -.298023223877D-07  .380907821540D+00  .633299350739D-07
     .989784162792D+00  .145875000000D+03 -.806648700133D+00 -.754567145036D-08
     .467876631797D-10  .100000000000D+01  .227900000000D+04  .000000000000D+00
     .240000000000D+01  .000000000000D+00  .372529029846D-08  .680000000000D+02
     .518400000000D+06  .400000000000D+01
32 23  9 16 16  0  0.0 -.558853615075D-03 -.602540239925D-11  .000000000000D+00
     .940000000000D+02 -.709062500000D+02  .490556147918D-08  .141323905487D+01
    -.367127358913D-05  .697179674171D-02  .590831041336D-05  .515357286453D+04
     .576000000000D+06 -.141561031342D-06  .245525692420D+01  .614672899246D-07
     .960378302491D+00  .268781250000D+03 -.222134638820D+01 -.841356474446D-08
    -.502878089748D-09  .100000000000D+01  .227900000000D+04  .000000000000D+00
     .340000000000D+01  .000000000000D+00  .465661287308D-09  .940000000000D+02
     .568800000000D+06  .400000000000D+01
24 23  9 16 16  0  0.0 -.321130268276D-03 -.105728759081D-10  .000000000000D+00
     .820000000000D+02  .743750000000D+01  .489520390489D-08 -.108598592194D+01
     .353902578354D-06  .144496459980D-01  .124499201775D-04  .515364183807D+04
     .576000000000D+06  .275671482086D-06 -.286258612881D+01  .262632966042D-06
     .934463842478D+00  .124093750000D+03  .919640039453D+00 -.819641284207D-08
    -.221080637467D-09  .100000000000D+01  .227900000000D+04  .000000000000D+00
     .240000000000D+01  .000000000000D+00  .232830643654D-08  .820000000000D+02
     .568800000000D+06  .400000000000D+01
16 23  9 16 16  0  0.0 -.453277491033D-03  .557065504836D-11  .000000000000D+00
     .490000000000D+02  .561250000000D+02  .471841082646D-08  .173208887037D+01
     .275112688541D-05  .133905148832D-01  .443123281002D-05  .515365621185D+04
     .576000000000D+06 -.288709998131D-06 -.163674308508D+01 -.186264514923D-07
     .963702751642D+00  .300437500000D+03  .793383223779D+00 -.841570769086D-08
     .194650965137D-09  .100000000000D+01  .227900000000D+04  .000000000000D+00
     .240000000000D+01  .000000000000D+00 -.102445483208D-07  .490000000000D+02
     .568800000000D+06  .400000000000D+01
17 23  9 16 16  0  0.0  .723754521459D-03  .113686837722D-12  .000000000000D+00
     .300000000000D+02 -.751562500000D+02  .436375319641D-08  .752909526550D+00
    -.404007732868D-05  .137287409743D-01  .698305666447D-05  .515357913971D+04
     .576000000000D+06 -.176951289177D-06 -.615162602643D+00 -.145286321640D-06
     .972648494234D+00  .250562500000D+03 -.139999247796D+01 -.832213236450D-08
    -.420017495415D-09  .100000000000D+01  .227900000000D+04  .000000000000D+00
     .240000000000D+01  .000000000000D+00 -.111758708954D-07  .300000000000D+02
     .568800000000D+06  .400000000000D+01
19 23  9 16 16  0  0.0  .372329726815D-03  .522959453519D-11  .000000000000D+00
     .260000000000D+02 -.789375000000D+02  .424124809358D-08  .284094850102D+01
    -.407546758652D-05  .941613095347D-02  .713579356670D-05  .515364765358D+04
     .576000000000D+06  .000000000000D+00 -.570704693376D+00  .182539224625D-06
     .971790737088D+00  .242093750000D+03  .241333515458D+01 -.792783022595D-08
    -.428232123301D-09  .100000000000D+01  .227900000000D+04  .000000000000D+00
     .240000000000D+01  .000000000000D+00 -.153668224812D-07  .260000000000D+02
     .568800000000D+06  .400000000000D+01
30 23  9 16 16  0  0.0 -.487238634378D-03  .341060513165D-11  .000000000000D+00
     .610000000000D+02  .270000000000D+02  .473162566263D-08 -.218993644424D+01
     .130757689476D-05  .658029597253D-02  .122226774693D-04  .515377353859D+04
     .576000000000D+06  .260770320892D-07 -.276560808096D+01 -.651925802231D-07
     .935942125586D+00  .129156250000D+03 -.254673050139D+01 -.800926218935D-08
     .239295681911D-10  .100000000000D+01  .227900000000D+04  .000000000000D+00
     .240000000000D+01  .000000000000D+00  .372529029846D-08  .610000000000D+02
     .568800000000D+06  .400000000000D+01
15 23  9 16 16  0  0.0  .781035050750D-04  .363797880709D-11  .000000000000D+00
     .690000000000D+02 -.584062500000D+02  .576131141032D-08 -.264659404835D+00
    -.287406146526D-05  .154254112858D-01  .480562448502D-05  .515377173424D+04
     .576000000000D+06 -.115483999252D-06  .232033387984D+01  .135973095894D-06
     .933188375407D+00  .271750000000D+03  .124307274574D+01 -.905573435054D-08
    -.423231915022D-09  .100000000000D+01  .227900000000D+04  .000000000000D+00
     .240000000000D+01  .000000000000D+00 -.107102096081D-07  .690000000000D+02
     .568800000000D+06  .400000000000D+01
20 23  9 16 16  0  0.0  .411577057093D-03 -.193267624127D-11  .000000000000D+00
     .430000000000D+02  .710937500000D+02  .519985945216D-08 -.552714038438D+00
     .383891165257D-05  .408323272131D-02  .600516796112D-05  .515361402702D+04
     .576000000000D+06  .745058059692D-07  .124583935058D+01  .242143869400D-07
     .949855288440D+00  .257562500000D+03 -.284791896188D+01 -.847785313661D-08
     .561451958156D-09  .100000000000D+01  .227900000000D+04  .000000000000D+00
     .240000000000D+01  .000000000000D+00 -.838190317154D-08  .430000000000D+02
     .568800000000D+06  .400000000000D+01
25 23  9 16 16  0  0.0  .468066427857D-03  .204636307899D-11  .000000000000D+00
     .710000000000D+02  .693437500000D+02  .479627121252D-08 -.296884723304D+01
     .364705920219D-05  .111637569498D-01  .477209687233D-05  .515367830467D+04
     .576000000000D+06  .633299350739D-07 -.173857626545D+01 -.104308128357D-06
     .951901840613D+00  .280562500000D+03  .105192982981D+01 -.821034199370D-08
     .382515933324D-09  .100000000000D+01  .227900000000D+04  .000000000000D+00
     .240000000000D+01  .000000000000D+00  .558793544769D-08  .710000000000D+02
     .568800000000D+06  .400000000000D+01
18 23  9 16 16  0  0.0 -.419260933995D-03 -.125055521494D-10  .000000000000D+00
     .110000000000D+02  .218750000000D+01  .390123393062D-08 -.127681994271D+01
    -.108033418655D-06  .372111704201D-02  .124499201775D-04  .515366285896D+04
     .576000000000D+06  .111758708954D-07  .388222081317D+00 -.577419996262D-07
     .974506729351D+00  .144593750000D+03 -.310571422782D+01 -.767531970787D-08
     .260010830495D-09  .100000000000D+01  .227900000000D+04  .000000000000D+00
     .240000000000D+01  .000000000000D+00 -.838190317154D-08  .267000000000D+03
     .568800000000D+06  .400000000000D+01
